CCSDS_OMM_VERS = 2.0
CREATION_DATE  = 
ORIGINATOR     = 

OBJECT_NAME    = UNKNOWN
OBJECT_ID      = 
CENTER_NAME    = EARTH
REF_FRAME      = TEME
TIME_SYSTEM    = UTC
MEAN_ELEMENT_THEORY = SGP/SGP4

EPOCH          = 2026-01-09T01:02:25.957536
MEAN_MOTION    = 14.13513715
ECCENTRICITY   = .0235768
INCLINATION    = 98.1993
RA_OF_ASC_NODE = 94.0298
ARG_OF_PERICENTER = 69.8847
MEAN_ANOMALY   = 292.7528

EPHEMERIS_TYPE = 0
CLASSIFICATION_TYPE = U
NORAD_CAT_ID   = 81535
ELEMENT_SET_NO = 999
REV_AT_EPOCH   = 39125
BSTAR          = .33342E-3
MEAN_MOTION_DOT = .779E-5
MEAN_MOTION_DDOT = 0

CCSDS_OMM_VERS = 2.0
CREATION_DATE  = 
ORIGINATOR     = 

OBJECT_NAME    = UNKNOWN
OBJECT_ID      = 
CENTER_NAME    = EARTH
REF_FRAME      = TEME
TIME_SYSTEM    = UTC
MEAN_ELEMENT_THEORY = SGP/SGP4

EPOCH          = 2026-01-11T09:37:05.288160
MEAN_MOTION    = 12.55908547
ECCENTRICITY   = .0027695
INCLINATION    = 101.9620
RA_OF_ASC_NODE = 237.8175
ARG_OF_PERICENTER = 247.7015
MEAN_ANOMALY   = 293.6302

EPHEMERIS_TYPE = 0
CLASSIFICATION_TYPE = U
NORAD_CAT_ID   = 81536
ELEMENT_SET_NO = 999
REV_AT_EPOCH   = 55553
BSTAR          = .34422E-2
MEAN_MOTION_DOT = .52E-5
MEAN_MOTION_DDOT = 0

CCSDS_OMM_VERS = 2.0
CREATION_DATE  = 
ORIGINATOR     = 

OBJECT_NAME    = UNKNOWN
OBJECT_ID      = 
CENTER_NAME    = EARTH
REF_FRAME      = TEME
TIME_SYSTEM    = UTC
MEAN_ELEMENT_THEORY = SGP/SGP4

EPOCH          = 2026-01-09T19:57:19.670688
MEAN_MOTION    = 14.07113007
ECCENTRICITY   = .0074673
INCLINATION    = 71.0393
RA_OF_ASC_NODE = 51.1315
ARG_OF_PERICENTER = 110.7725
MEAN_ANOMALY   = 250.1415

EPHEMERIS_TYPE = 0
CLASSIFICATION_TYPE = U
NORAD_CAT_ID   = 81537
ELEMENT_SET_NO = 999
REV_AT_EPOCH   = 62441
BSTAR          = .57843E-4
MEAN_MOTION_DOT = .53E-6
MEAN_MOTION_DDOT = 0

CCSDS_OMM_VERS = 2.0
CREATION_DATE  = 
ORIGINATOR     = 

OBJECT_NAME    = UNKNOWN
OBJECT_ID      = 
CENTER_NAME    = EARTH
REF_FRAME      = TEME
TIME_SYSTEM    = UTC
MEAN_ELEMENT_THEORY = SGP/SGP4

EPOCH          = 2025-12-15T12:20:40.257312
MEAN_MOTION    = 13.18182296
ECCENTRICITY   = .0259238
INCLINATION    = 99.0653
RA_OF_ASC_NODE = 275.7867
ARG_OF_PERICENTER = 11.5492
MEAN_ANOMALY   = 349.1424

EPHEMERIS_TYPE = 0
CLASSIFICATION_TYPE = U
NORAD_CAT_ID   = 81552
ELEMENT_SET_NO = 999
REV_AT_EPOCH   = 57961
BSTAR          = .24303E-2
MEAN_MOTION_DOT = .1096E-4
MEAN_MOTION_DDOT = 0

CCSDS_OMM_VERS = 2.0
CREATION_DATE  = 
ORIGINATOR     = 

OBJECT_NAME    = UNKNOWN
OBJECT_ID      = 
CENTER_NAME    = EARTH
REF_FRAME      = TEME
TIME_SYSTEM    = UTC
MEAN_ELEMENT_THEORY = SGP/SGP4

EPOCH          = 2026-01-08T21:10:40.222272
MEAN_MOTION    = 13.31480430
ECCENTRICITY   = .0245449
INCLINATION    = 67.2918
RA_OF_ASC_NODE = 222.2535
ARG_OF_PERICENTER = 64.3858
MEAN_ANOMALY   = 312.0517

EPHEMERIS_TYPE = 0
CLASSIFICATION_TYPE = U
NORAD_CAT_ID   = 81599
ELEMENT_SET_NO = 999
REV_AT_EPOCH   = 58869
BSTAR          = .16051E-2
MEAN_MOTION_DOT = .845E-5
MEAN_MOTION_DDOT = 0

CCSDS_OMM_VERS = 2.0
CREATION_DATE  = 
ORIGINATOR     = 

OBJECT_NAME    = UNKNOWN
OBJECT_ID      = 
CENTER_NAME    = EARTH
REF_FRAME      = TEME
TIME_SYSTEM    = UTC
MEAN_ELEMENT_THEORY = SGP/SGP4

EPOCH          = 2026-01-11T14:53:50.423136
MEAN_MOTION    = 12.81554889
ECCENTRICITY   = .0175597
INCLINATION    = 56.4344
RA_OF_ASC_NODE = 128.9045
ARG_OF_PERICENTER = 174.3168
MEAN_ANOMALY   = 185.9804

EPHEMERIS_TYPE = 0
CLASSIFICATION_TYPE = U
NORAD_CAT_ID   = 81605
ELEMENT_SET_NO = 999
REV_AT_EPOCH   = 19003
BSTAR          = .17635E-2
MEAN_MOTION_DOT = .334E-5
MEAN_MOTION_DDOT = 0

CCSDS_OMM_VERS = 2.0
CREATION_DATE  = 
ORIGINATOR     = 

OBJECT_NAME    = UNKNOWN
OBJECT_ID      = 
CENTER_NAME    = EARTH
REF_FRAME      = TEME
TIME_SYSTEM    = UTC
MEAN_ELEMENT_THEORY = SGP/SGP4

EPOCH          = 2025-12-28T22:30:50.508576
MEAN_MOTION    = 12.37272975
ECCENTRICITY   = .0333303
INCLINATION    = 101.8208
RA_OF_ASC_NODE = 358.2906
ARG_OF_PERICENTER = 117.4365
MEAN_ANOMALY   = 246.1008

EPHEMERIS_TYPE = 0
CLASSIFICATION_TYPE = U
NORAD_CAT_ID   = 81614
ELEMENT_SET_NO = 999
REV_AT_EPOCH   = 53998
BSTAR          = .41114E-1
MEAN_MOTION_DOT = .6376E-4
MEAN_MOTION_DDOT = 0

CCSDS_OMM_VERS = 2.0
CREATION_DATE  = 
ORIGINATOR     = 

OBJECT_NAME    = UNKNOWN
OBJECT_ID      = 
CENTER_NAME    = EARTH
REF_FRAME      = TEME
TIME_SYSTEM    = UTC
MEAN_ELEMENT_THEORY = SGP/SGP4

EPOCH          = 2026-01-11T15:28:54.970752
MEAN_MOTION    = 13.34178485
ECCENTRICITY   = .0769397
INCLINATION    = 65.8285
RA_OF_ASC_NODE = 352.4336
ARG_OF_PERICENTER = 122.6370
MEAN_ANOMALY   = 245.1315

EPHEMERIS_TYPE = 0
CLASSIFICATION_TYPE = U
NORAD_CAT_ID   = 81615
ELEMENT_SET_NO = 999
REV_AT_EPOCH   = 58685
BSTAR          = .42164E-3
MEAN_MOTION_DOT = .1106E-4
MEAN_MOTION_DDOT = 0

CCSDS_OMM_VERS = 2.0
CREATION_DATE  = 
ORIGINATOR     = 

OBJECT_NAME    = UNKNOWN
OBJECT_ID      = 
CENTER_NAME    = EARTH
REF_FRAME      = TEME
TIME_SYSTEM    = UTC
MEAN_ELEMENT_THEORY = SGP/SGP4

EPOCH          = 2026-01-11T05:22:47.918208
MEAN_MOTION    = 12.57558679
ECCENTRICITY   = .00382
INCLINATION    = 101.2597
RA_OF_ASC_NODE = 189.3909
ARG_OF_PERICENTER = 187.5489
MEAN_ANOMALY   = 172.5016

EPHEMERIS_TYPE = 0
CLASSIFICATION_TYPE = U
NORAD_CAT_ID   = 81617
ELEMENT_SET_NO = 999
REV_AT_EPOCH   = 55681
BSTAR          = .20784E-2
MEAN_MOTION_DOT = .308E-5
MEAN_MOTION_DDOT = 0

CCSDS_OMM_VERS = 2.0
CREATION_DATE  = 
ORIGINATOR     = 

OBJECT_NAME    = UNKNOWN
OBJECT_ID      = 
CENTER_NAME    = EARTH
REF_FRAME      = TEME
TIME_SYSTEM    = UTC
MEAN_ELEMENT_THEORY = SGP/SGP4

EPOCH          = 2026-01-05T23:28:05.683584
MEAN_MOTION    = 14.71460928
ECCENTRICITY   = .006931
INCLINATION    = 66.9769
RA_OF_ASC_NODE = 99.9462
ARG_OF_PERICENTER = 218.5053
MEAN_ANOMALY   = 141.1114

EPHEMERIS_TYPE = 0
CLASSIFICATION_TYPE = U
NORAD_CAT_ID   = 81624
ELEMENT_SET_NO = 999
REV_AT_EPOCH   = 64327
BSTAR          = .16282E-2
MEAN_MOTION_DOT = .10409E-3
MEAN_MOTION_DDOT = 0

CCSDS_OMM_VERS = 2.0
CREATION_DATE  = 
ORIGINATOR     = 

OBJECT_NAME    = UNKNOWN
OBJECT_ID      = 
CENTER_NAME    = EARTH
REF_FRAME      = TEME
TIME_SYSTEM    = UTC
MEAN_ELEMENT_THEORY = SGP/SGP4

EPOCH          = 2026-01-11T10:47:39.288192
MEAN_MOTION    = 12.57236997
ECCENTRICITY   = .0976579
INCLINATION    = 65.8265
RA_OF_ASC_NODE = 71.1850
ARG_OF_PERICENTER = 65.5417
MEAN_ANOMALY   = 304.4251

EPHEMERIS_TYPE = 0
CLASSIFICATION_TYPE = U
NORAD_CAT_ID   = 81640
ELEMENT_SET_NO = 999
REV_AT_EPOCH   = 51381
BSTAR          = .16438E-3
MEAN_MOTION_DOT = .119E-5
MEAN_MOTION_DDOT = 0

CCSDS_OMM_VERS = 2.0
CREATION_DATE  = 
ORIGINATOR     = 

OBJECT_NAME    = UNKNOWN
OBJECT_ID      = 
CENTER_NAME    = EARTH
REF_FRAME      = TEME
TIME_SYSTEM    = UTC
MEAN_ELEMENT_THEORY = SGP/SGP4

EPOCH          = 2025-12-21T04:18:46.291680
MEAN_MOTION    = 13.44387754
ECCENTRICITY   = .0368004
INCLINATION    = 102.1470
RA_OF_ASC_NODE = 245.4139
ARG_OF_PERICENTER = 340.8161
MEAN_ANOMALY   = 173.3701

EPHEMERIS_TYPE = 0
CLASSIFICATION_TYPE = U
NORAD_CAT_ID   = 81652
ELEMENT_SET_NO = 999
REV_AT_EPOCH   = 57978
BSTAR          = .77035E-3
MEAN_MOTION_DOT = .611E-5
MEAN_MOTION_DDOT = 0

CCSDS_OMM_VERS = 2.0
CREATION_DATE  = 
ORIGINATOR     = 

OBJECT_NAME    = UNKNOWN
OBJECT_ID      = 
CENTER_NAME    = EARTH
REF_FRAME      = TEME
TIME_SYSTEM    = UTC
MEAN_ELEMENT_THEORY = SGP/SGP4

EPOCH          = 2026-01-08T04:30:51.030432
MEAN_MOTION    = 14.48150952
ECCENTRICITY   = .001774
INCLINATION    = 74.0420
RA_OF_ASC_NODE = 347.0597
ARG_OF_PERICENTER = 273.2639
MEAN_ANOMALY   = 86.6491

EPHEMERIS_TYPE = 0
CLASSIFICATION_TYPE = U
NORAD_CAT_ID   = 81667
ELEMENT_SET_NO = 999
REV_AT_EPOCH   = 46047
BSTAR          = .69553E-3
MEAN_MOTION_DOT = .257E-4
MEAN_MOTION_DDOT = 0

CCSDS_OMM_VERS = 2.0
CREATION_DATE  = 
ORIGINATOR     = 

OBJECT_NAME    = UNKNOWN
OBJECT_ID      = 
CENTER_NAME    = EARTH
REF_FRAME      = TEME
TIME_SYSTEM    = UTC
MEAN_ELEMENT_THEORY = SGP/SGP4

EPOCH          = 2026-01-02T07:04:35.042592
MEAN_MOTION    = 14.09977125
ECCENTRICITY   = .0030094
INCLINATION    = 66.8243
RA_OF_ASC_NODE = 312.5108
ARG_OF_PERICENTER = 219.1286
MEAN_ANOMALY   = 296.6724

EPHEMERIS_TYPE = 0
CLASSIFICATION_TYPE = U
NORAD_CAT_ID   = 81674
ELEMENT_SET_NO = 999
REV_AT_EPOCH   = 61661
BSTAR          = .11968E-2
MEAN_MOTION_DOT = .2042E-4
MEAN_MOTION_DDOT = 0

CCSDS_OMM_VERS = 2.0
CREATION_DATE  = 
ORIGINATOR     = 

OBJECT_NAME    = UNKNOWN
OBJECT_ID      = 
CENTER_NAME    = EARTH
REF_FRAME      = TEME
TIME_SYSTEM    = UTC
MEAN_ELEMENT_THEORY = SGP/SGP4

EPOCH          = 2026-01-11T16:17:46.927968
MEAN_MOTION    = 14.57605117
ECCENTRICITY   = .0022476
INCLINATION    = 81.2142
RA_OF_ASC_NODE = 263.7939
ARG_OF_PERICENTER = 205.0118
MEAN_ANOMALY   = 154.9992

EPHEMERIS_TYPE = 0
CLASSIFICATION_TYPE = U
NORAD_CAT_ID   = 81683
ELEMENT_SET_NO = 999
REV_AT_EPOCH   = 64022
BSTAR          = .46686E-3
MEAN_MOTION_DOT = .2147E-4
MEAN_MOTION_DDOT = 0

CCSDS_OMM_VERS = 2.0
CREATION_DATE  = 
ORIGINATOR     = 

OBJECT_NAME    = UNKNOWN
OBJECT_ID      = 
CENTER_NAME    = EARTH
REF_FRAME      = TEME
TIME_SYSTEM    = UTC
MEAN_ELEMENT_THEORY = SGP/SGP4

EPOCH          = 2026-01-11T09:46:48.663552
MEAN_MOTION    = 12.25928422
ECCENTRICITY   = .036443
INCLINATION    = 101.0945
RA_OF_ASC_NODE = 74.5819
ARG_OF_PERICENTER = 27.8685
MEAN_ANOMALY   = 334.1387

EPHEMERIS_TYPE = 0
CLASSIFICATION_TYPE = U
NORAD_CAT_ID   = 81693
ELEMENT_SET_NO = 999
REV_AT_EPOCH   = 97140
BSTAR          = .37514E-2
MEAN_MOTION_DOT = .482E-5
MEAN_MOTION_DDOT = 0

